QIANFAN-17              
1 60395U 24140S   25206.89924595  .00000109  00000+0  15015-3 0  9994
2 60395  88.9858 313.8645 0013289 245.0552 114.9219 13.50959245 49257
QIANFAN-18              
1 60396U 24140T   25206.87876519  .00000133  00000+0  18683-3 0  9996
2 60396  88.9850 313.4111 0013099 225.6729 134.3349 13.50954754 48645
QIANFAN-19              
1 61552U 24185A   25206.91133256  .00000418  00000+0  21245-3 0  9993
2 61552  88.9815  93.9828 0008950  45.8448 314.3473 14.14109890 49908
QIANFAN-20              
1 61553U 24185B   25206.75846452  .00000356  00000+0  19885-3 0  9993
2 61553  88.9815  94.1828 0008274  73.5107 286.6985 14.08662290 49787
QIANFAN-21              
1 61554U 24185C   25206.76344205  .00000539  00000+0  23576-3 0  9999
2 61554  88.9728  93.3935 0013106  95.4763 264.7924 14.22353169 50074
QIANFAN-22              
1 61555U 24185D   25206.75932896  .00000215  00000+0  17433-3 0  9994
2 61555  88.9801  94.6004 0009006  67.1114 293.1007 13.86233738 49544
QIANFAN-23              
1 61556U 24185E   25206.72943538  .00000476  00000+0  23403-3 0  9990
2 61556  88.9807  93.8780 0010068  55.3256 304.8879 14.16079805 49936
QIANFAN-24              
1 61557U 24185F   25206.74378412  .00000568  00000+0  24313-3 0  9999
2 61557  88.9788  93.5107 0011435  43.9800 316.2300 14.23556566 50101
